STARLINK-4669           
1 53748U 22107BA  24181.35581240  .00000833  00000+0  70431-4 0  9995
2 53748  53.2156 160.1027 0001442  87.9490 272.1667 15.08842636100461
STARLINK-4680           
1 53749U 22107BB  24181.20219496  .00014385  00000+0  79969-3 0  9992
2 53749  53.2140 158.4616 0002476  74.4665 285.6603 15.13930613100471
STARLINK-4612           
1 53750U 22107BC  24181.35949195  .00001493  00000+0  11186-3 0  9999
2 53750  53.2162 160.1195 0001459  93.6920 266.4239 15.08845365100460
STARLINK-4718           
1 53773U 22111A   24181.18466553  .00001718  00000+0  12598-3 0  9990
2 53773  53.2137 180.6194 0001228  87.7473 272.3660 15.08844753 99375
STARLINK-4719           
1 53774U 22111B   24181.37970494  .00001127  00000+0  88917-4 0  9999
2 53774  53.2145 179.7058 0001326  88.9191 271.1953 15.08838771 99401
STARLINK-4722           
1 53775U 22111C   24181.27762758 -.00000154  00000+0  84177-5 0  9996
2 53775  53.2146 170.5153 0000990  66.1429 293.9667 15.08831014 99526
STARLINK-4708           
1 53776U 22111D   24181.20636244  .00001715  00000+0  12583-3 0  9993
2 53776  53.2154 175.7652 0001389  87.9668 272.1483 15.08839151 99442
STARLINK-4664           
1 53777U 22111E   24181.20401992 -.00000062  00000+0  14209-4 0  9997
2 53777  53.2152 170.7684 0001255  91.3766 268.7370 15.08832455 99515
STARLINK-4709           
1 53778U 22111F   24181.23110764  .00000960  00000+0  78432-4 0  9999
2 53778  53.2153 175.2165 0001347  87.0523 273.0623 15.08834744 99452
STARLINK-4706           
1 53779U 22111G   24181.26656998  .00001238  00000+0  95854-4 0  9993
2 53779  53.2153 170.4477 0001248  90.6315 269.4821 15.08840094 99527
STARLINK-4678           
1 53780U 22111H   24181.20769896  .00000794  00000+0  67983-4 0  9999
2 53780  53.2151 170.7915 0001275  92.7841 267.3297 15.08838706 99514
STARLINK-4462           
1 53781U 22111J   24181.18926988  .00000753  00000+0  65394-4 0  9993
2 53781  53.2159 170.6756 0001413  94.8430 265.2723 15.08843574 99516
STARLINK-4679           
1 53782U 22111K   24180.26928292  .00000781  00000+0  67154-4 0  9999
2 53782  53.2154 174.8848 0001056  85.5400 274.5713 15.08840917100183
STARLINK-4536           
1 53783U 22111L   24181.24814049  .00002008  00000+0  14419-3 0  9992
2 53783  53.2154 170.3320 0001119  88.4226 271.6894 15.08846507 99522
STARLINK-4687           
1 53784U 22111M   24181.19295764  .00000322  00000+0  38318-4 0  9996
2 53784  53.2164 170.6992 0001368  91.6665 268.4483 15.08839618 99513
STARLINK-4631           
1 53786U 22111P   24181.22055719  .00000878  00000+0  73247-4 0  9992
2 53786  53.2164 160.2967 0001401  94.0300 266.0853 15.08845728 99663
STARLINK-4743           
1 53787U 22111Q   24181.37325032  .00001132  00000+0  89166-4 0  9998
2 53787  53.2153 169.6912 0000899  88.4992 271.6103 15.08844842 99542
STARLINK-4666           
1 53789U 22111S   24181.36220038  .00001566  00000+0  11644-3 0  9995
2 53789  53.2145 169.6239 0000912  79.9407 280.1688 15.08844241 99545
STARLINK-4734           
1 53790U 22111T   24180.25085886 -.00001327  00000+0 -65282-4 0  9999
2 53790  53.2156 174.7679 0001254  88.0250 272.0886 15.08842846100183
STARLINK-4739           
1 53792U 22111V   24181.35587187  .00002337  00000+0  16485-3 0  9994
2 53792  53.2150 170.2785 0001247  95.3422 264.7713 15.08846249 99536
STARLINK-4728           
1 53793U 22111W   24181.23708642  .00001512  00000+0  11302-3 0  9990
2 53793  53.2152 170.2602 0001320  91.0204 269.0939 15.08847979 99528
STARLINK-4730           
1 53794U 22111X   24181.17549322  .00000969  00000+0  78940-4 0  9999
2 53794  53.2144 170.5852 0001249  89.3852 270.7283 15.08840053 99515
STARLINK-4742           
1 53795U 22111Y   24181.22603931  .00000970  00000+0  79046-4 0  9993
2 53795  53.2147 170.1950 0001070  86.9716 273.1398 15.08838775 99521
STARLINK-4721           
1 53796U 22111Z   24180.63539026  .00001010  00000+0  81540-4 0  9999
2 53796  53.2157 152.8340 0001248  92.4922 267.6213 15.08845191100540
STARLINK-4723           
1 53797U 22111AA  24181.21498495  .00000188  00000+0  29885-4 0  9998
2 53797  53.2147 170.1256 0001181  79.3984 280.7141 15.08837433 99528
STARLINK-4712           
1 53798U 22111AB  24181.15242858  .00000568  00000+0  53758-4 0  9990
2 53798  53.2151 170.4476 0001265  92.0164 268.0973 15.08844195 99497
STARLINK-4710           
1 53799U 22111AC  24181.19484196  .00001880  00000+0  13618-3 0  9996
2 53799  53.2150 160.7223 0001309  84.8114 275.3028 15.08846619 99633
STARLINK-4720           
1 53800U 22111AD  24180.25546879  .00000195  00000+0  30331-4 0  9992
2 53800  53.2160 164.8176 0001411 101.0593 259.0558 15.08837751100307
STARLINK-4715           
1 53801U 22111AE  24181.23063856  .00000976  00000+0  79375-4 0  9999
2 53801  53.2165 160.2409 0001376  96.6553 263.4596 15.08844141 99643
STARLINK-4726           
1 53802U 22111AF  24181.30793347  .00002351  00000+0  16574-3 0  9993
2 53802  53.2157 160.0122 0001245  93.9143 266.1992 15.08845531 99650
STARLINK-4727           
1 53803U 22111AG  24181.32221654  .00000936  00000+0  76903-4 0  9993
2 53803  53.2146 145.1273 0001269  90.6893 269.4244 15.08845125 99860
STARLINK-4729           
1 53804U 22111AH  24180.63774879  .00000303  00000+0  37146-4 0  9993
2 53804  53.2162 157.9417 0001297 100.9298 259.1840 15.08837277100438
STARLINK-4763           
1 53805U 22111AJ  24181.33053309  .00002554  00000+0  17841-3 0  9999
2 53805  53.2152 145.1715 0001385  86.5850 273.5300 15.08853022 99860
STARLINK-4768           
1 53806U 22111AK  24181.17131184  .00002914  00000+0  20108-3 0  9990
2 53806  53.2159 145.5999 0001275 100.5294 259.5842 15.08848462 99848
STARLINK-4749           
1 53818U 22114A   24181.39852477 -.00000617  00000+0 -15189-4 0  9999
2 53818  53.2185 173.1798 0001312  95.0916 265.0229 15.17051870 99339
STARLINK-4738           
1 53819U 22114B   24181.20858514  .00000070  00000+0  22511-4 0  9996
2 53819  53.2153 200.4646 0001279  91.6954 268.4185 15.08832967 98923
STARLINK-4758           
1 53820U 22114C   24181.44046101  .00001903  00000+0  13759-3 0  9994
2 53820  53.2146 199.7709 0001349  86.5225 273.5921 15.08847065 98952
STARLINK-4752           
1 53821U 22114D   24181.19066706  .00000547  00000+0  52432-4 0  9995
2 53821  53.2154 145.4800 0001139  86.0408 274.0714 15.08839434 99696
STARLINK-4748           
1 53823U 22114F   24181.21456585  .00001039  00000+0  83336-4 0  9992
2 53823  53.2150 155.5499 0001232  91.3319 268.7814 15.08846152 99555
STARLINK-4757           
1 53824U 22114G   24181.23069463  .00001288  00000+0  99031-4 0  9995
2 53824  53.2158 200.5978 0001434 103.5054 256.6098 15.08839173 98928
STARLINK-4751           
1 53825U 22114H   24181.23437586  .00001477  00000+0  11090-3 0  9999
2 53825  53.2153 200.6176 0001366  96.7343 263.3805 15.08839813 98925
STARLINK-4756           
1 53826U 22114J   24181.21594774  .00001559  00000+0  11602-3 0  9991
2 53826  53.2145 200.5026 0001301  92.1096 268.0045 15.08841429 98928
STARLINK-4764           
1 53827U 22114K   24181.35948197  .00001904  00000+0  13770-3 0  9991
2 53827  53.2148 199.9762 0001272  92.0162 268.0976 15.08841840 98942
STARLINK-4760           
1 53828U 22114L   24181.47723063  .00000743  00000+0  64786-4 0  9992
2 53828  53.2148 199.2909 0001246  92.0062 268.1073 15.08836271 98962
STARLINK-4759           
1 53829U 22114M   24181.35580511  .00000703  00000+0  62276-4 0  9997
2 53829  53.2148 199.9567 0001312 104.6662 255.4476 15.08835059 98947
STARLINK-4761           
1 53830U 22114N   24181.33740340 -.00002773  00000+0 -15631-3 0  9998
2 53830  53.2149 199.8402 0001254  90.5222 269.5914 15.08809565 98943
STARLINK-4649           
1 53831U 22114P   24181.41836181  .00000123  00000+0  25826-4 0  9990
2 53831  53.2143 199.6337 0001247  93.0783 267.0352 15.08831596 98954
STARLINK-4747           
1 53832U 22114Q   24181.19754418 -.00000544  00000+0 -16072-4 0  9990
2 53832  53.2150 200.3877 0001315  80.9843 279.1298 15.08826151 98921
STARLINK-4771           
1 53833U 22114R   24180.87833587  .00000793  00000+0  67892-4 0  9990
2 53833  53.2155 201.9491 0001353  93.5880 266.5266 15.08839626 99410
STARLINK-4737           
1 53834U 22114S   24181.45512819 -.00000728  00000+0 -27645-4 0  9990
2 53834  53.2156 199.1553 0001193  90.2622 269.8507 15.08830569 98969
STARLINK-4783           
1 53835U 22114T   24181.20121355  .00001948  00000+0  14045-3 0  9997
2 53835  53.2155 200.4102 0001301  90.3818 269.7323 15.08831976 98928
STARLINK-4778           
1 53836U 22114U   24181.43769988 -.00003467  00000+0 -19982-3 0  9998
2 53836  53.2150 189.7674 0001283  86.4089 273.7050 15.08842991 99092
STARLINK-4776           
1 53837U 22114V   24181.45878154  .00010577  00000+0  68088-3 0  9996
2 53837  53.2144 199.1756 0001118  93.3464 266.7656 15.08879718 98969
STARLINK-4773           
1 53838U 22114W   24181.23529651  .00000972  00000+0  79177-4 0  9998
2 53838  53.2155 190.6394 0001222  88.3724 271.7408 15.08840805 99063
STARLINK-4784           
1 53839U 22114X   24181.44138828  .00001386  00000+0  10517-3 0  9996
2 53839  53.2158 189.7941 0001300  88.7844 271.3297 15.08844358 99090
STARLINK-4766           
1 53840U 22114Y   24181.42393113 -.00000134  00000+0  96450-5 0  9999
2 53840  53.2153 189.6841 0001353  92.2442 267.8705 15.08831923 99095
STARLINK-4750           
1 53841U 22114Z   24181.23159859  .00001240  00000+0  95977-4 0  9996
2 53841  53.2149 190.6164 0001163  95.1921 264.9204 15.08845981 99062
STARLINK-4754           
1 53842U 22114AA  24181.41559544  .00000609  00000+0  56333-4 0  9993
2 53842  53.2157 189.6338 0001380  89.6389 270.4761 15.08843114 99099
STARLINK-4769           
1 53843U 22114AB  24181.22792728  .00000255  00000+0  34117-4 0  9999
2 53843  53.2149 190.5926 0001337  92.1717 267.9428 15.08840724 99063
